[{"OBJECT_NAME":"SHIJIAN-6 01A (SJ-6 01A)","OBJECT_ID":"2004-035A","EPOCH":"2026-03-09T23:26:31.260480","MEAN_MOTION":15.1644809,"ECCENTRICITY":0.0008065,"INCLINATION":97.598,"RA_OF_ASC_NODE":95.8752,"ARG_OF_PERICENTER":114.4113,"MEAN_ANOMALY":245.7962,"EPHEMERIS_TYPE":0,"CLASSIFICATION_TYPE":"U","NORAD_CAT_ID":28413,"ELEMENT_SET_NO":999,"REV_AT_EPOCH":17242,"BSTAR":0.00047768034,"MEAN_MOTION_DOT":9.235e-5,"MEAN_MOTION_DDOT":0},{"OBJECT_NAME":"CZ-2C DEB","OBJECT_ID":"2011-030F","EPOCH":"2026-03-09T18:15:45.395712","MEAN_MOTION":15.09717889,"ECCENTRICITY":0.00353547,"INCLINATION":98.459,"RA_OF_ASC_NODE":350.9929,"ARG_OF_PERICENTER":109.3287,"MEAN_ANOMALY":305.6279,"EPHEMERIS_TYPE":0,"CLASSIFICATION_TYPE":"U","NORAD_CAT_ID":37735,"ELEMENT_SET_NO":999,"REV_AT_EPOCH":78307,"BSTAR":0.0021378399,"MEAN_MOTION_DOT":0.00035046,"MEAN_MOTION_DDOT":0}]
